ONEWEB-0336             
1 49202U 21083S   26198.80587564 -.00000305  00000+0 -87113-3 0  9992
2 49202  87.8978 314.1340 0001824  91.8796 268.2542 13.13468678234934
ONEWEB-0337             
1 49203U 21083T   26198.81590463 -.00000282  00000+0 -80624-3 0  9990
2 49203  87.8978 314.1376 0002034  94.6161 265.5201 13.13469408234939
ONEWEB-0338             
1 49204U 21083U   26198.49533233  .00000053  00000+0  98487-4 0  9998
2 49204  87.9182 268.4073 0002159 106.6384 253.4986 13.20771202240818
ONEWEB-0339             
1 49205U 21083V   26198.82450079 -.00000078  00000+0 -24777-3 0  9991
2 49205  87.8973 314.1290 0002176 105.6084 254.5286 13.13470231234910
ONEWEB-0340             
1 49206U 21083W   26198.86350008  .00000035  00000+0  56492-4 0  9998
2 49206  87.9200 329.3565 0001856  94.3536 265.7808 13.18687045234011
ONEWEB-0341             
1 49207U 21083X   26198.87023756  .00000048  00000+0  88964-4 0  9990
2 49207  87.9193 329.3566 0002295  89.2301 270.9094 13.18687727234039
ONEWEB-0342             
1 49208U 21083Y   26198.19904180  .00000068  00000+0  13465-3 0  9990
2 49208  87.9185 268.4564 0002168 100.8656 259.2721 13.20773113240744
ONEWEB-0343             
1 49209U 21083Z   26198.87867342  .00000066  00000+0  13437-3 0  9991
2 49209  87.9194 329.3536 0002265 105.3853 254.7530 13.18687414234081
ONEWEB-0344             
1 49210U 21083AA  26198.81941033 -.00000202  00000+0 -58769-3 0  9998
2 49210  87.8978 314.1428 0002239  90.9418 269.1968 13.13469536234916
ONEWEB-0345             
1 49211U 21083AB  26198.88713215 -.00000254  00000+0 -73134-3 0  9995
2 49211  87.8988 314.1144 0002218  93.9387 266.1996 13.13470015234932
ONEWEB-0346             
1 49212U 21083AC  26198.87529991  .00000036  00000+0  57793-4 0  9991
2 49212  87.9190 329.3534 0001455  82.1619 277.9678 13.18687161234024
ONEWEB-0348             
1 49213U 21083AD  26198.94651304 -.00000001  00000+0 -33618-4 0  9998
2 49213  87.9187 268.3120 0002031  83.3989 276.7376 13.20772106240877
ONEWEB-0350             
1 49214U 21083AE  26198.82970648 -.00000015  00000+0 -75791-4 0  9994
2 49214  87.8984 314.1307 0001716 133.0323 227.0951 13.13472038234956
ONEWEB-0351             
1 49215U 21083AF  26198.93964033  .00000048  00000+0  87104-4 0  9993
2 49215  87.9183 268.3123 0002695 101.9735 258.1700 13.20770544240835
ONEWEB-0352             
1 49216U 21083AG  26198.80079957 -.00000183  00000+0 -53542-3 0  9992
2 49216  87.8981 314.1406 0002348 106.2525 253.8863 13.13469115235045
ONEWEB-0354             
1 49217U 21083AH  26198.89095770  .00000083  00000+0  17111-3 0  9992
2 49217  87.9185 268.3206 0002132  87.2743 272.8635 13.20771683240860
ONEWEB-0355             
1 49218U 21083AJ  26198.83040326  .00000016  00000+0  81470-5 0  9991
2 49218  87.8977 314.1354 0002159 100.2324 259.9049 13.13468458234923
ONEWEB-0357             
1 49219U 21083AK  26198.66031518 -.00000072  00000+0 -20985-3 0  9992
2 49219  87.9187 268.3598 0002280 100.3154 259.8236 13.20769769240836
ONEWEB-0332             
1 49279U 21090A   26198.20904279  .00000061  00000+0  12875-3 0  9994
2 49279  87.8965 283.7274 0002043 105.6082 254.5273 13.14503486231526
ONEWEB-0347             
1 49280U 21090B   26198.95324406 -.00000020  00000+0 -80752-4 0  9993
2 49280  87.9185 268.3097 0002071 106.7651 253.3710 13.20769615235106
ONEWEB-0349             
1 49281U 21090C   26198.60644184  .00000024  00000+0  26800-4 0  9990
2 49281  87.9184 268.3801 0002093  98.2033 261.9337 13.20769401233844
ONEWEB-0353             
1 49282U 21090D   26198.65782326 -.00000183  00000+0 -52851-3 0  9999
2 49282  87.8968 283.6342 0002015 107.4988 252.6362 13.14502446231581
ONEWEB-0356             
1 49283U 21090E   26198.60476566  .00000025  00000+0  30462-4 0  9999
2 49283  87.9181 268.3737 0001256  97.1533 262.9744 13.20769848233842
ONEWEB-0358             
1 49284U 21090F   26198.94397171 -.00000030  00000+0 -10549-3 0  9992
2 49284  87.9187 268.3137 0001962  94.3694 265.7664 13.20769703234612
ONEWEB-0359             
1 49285U 21090G   26198.48017936  .00000065  00000+0  12766-3 0  9999
2 49285  87.9184 268.3983 0002100  90.9713 269.1661 13.20770614234537
ONEWEB-0360             
1 49286U 21090H   26198.47009650  .00000082  00000+0  17088-3 0  9994
2 49286  87.9186 268.4063 0002186  96.8771 263.2611 13.20771397233845
ONEWEB-0361             
1 49287U 21090J   26198.90609867  .00000005  00000+0 -19360-4 0  9991
2 49287  87.9183 268.3183 0001992  94.7841 265.3520 13.20772692234352
ONEWEB-0362             
1 49288U 21090K   26198.80720772  .00000577  00000+0  14080-2 0  9995
2 49288  87.9186 298.8810 0002363 103.9499 256.1897 13.19730678230959
ONEWEB-0363             
1 49289U 21090L   26198.92125916  .00000066  00000+0  13140-3 0  9998
2 49289  87.9183 268.3153 0001769  95.5671 264.5664 13.20772107234365
ONEWEB-0364             
1 49290U 21090M   26198.65694923 -.00000032  00000+0 -11176-3 0  9991
2 49290  87.9184 268.3752 0002081  97.1731 262.9639 13.20770066235464
ONEWEB-0365             
1 49291U 21090N   26198.81668858 -.00000071  00000+0 -20974-3 0  9997
2 49291  87.9195 298.8693 0002095 103.2155 256.9212 13.19726580230468
ONEWEB-0366             
1 49292U 21090P   26198.65465724 -.00000225  00000+0 -64116-3 0  9994
2 49292  87.8967 283.6362 0002036  98.3456 261.7905 13.14502332231560
ONEWEB-0367             
1 49293U 21090Q   26198.92040993  .00000020  00000+0  17094-4 0  9997
2 49293  87.9185 268.3169 0002251 100.4719 259.6669 13.20772794233883
ONEWEB-0368             
1 49294U 21090R   26198.66706183  .00000029  00000+0  38872-4 0  9995
2 49294  87.9173 268.3751 0001671 115.6051 244.5255 13.20771801235008
ONEWEB-0369             
1 49295U 21090S   26198.81194979 -.00000016  00000+0 -73523-4 0  9997
2 49295  87.9184 298.8756 0001986 103.3544 256.7810 13.19726411230455
ONEWEB-0370             
1 49296U 21090T   26198.47513690  .00000085  00000+0  17632-3 0  9997
2 49296  87.9184 268.4050 0002314  93.9418 266.1979 13.20771847233860
ONEWEB-0371             
1 49297U 21090U   26198.81984855  .00000026  00000+0  32613-4 0  9993
2 49297  87.9193 298.8684 0002089 101.7542 258.3826 13.19725261230493
ONEWEB-0372             
1 49298U 21090V   26198.91943258  .00000065  00000+0  12760-3 0  9990
2 49298  87.9183 268.3185 0002117  99.1938 260.9435 13.20768981233892
ONEWEB-0373             
1 49299U 21090W   26198.64178702 -.00000035  00000+0 -11745-3 0  9996
2 49299  87.9183 268.3732 0002071  96.0966 264.0403 13.20773292235047
ONEWEB-0374             
1 49300U 21090X   26198.79419279 -.00000091  00000+0 -28116-3 0  9994
2 49300  87.8970 283.6002 0001514  88.8995 271.2308 13.14502761231588
ONEWEB-0375             
1 49301U 21090Y   26198.93303324  .00000030  00000+0  41312-4 0  9999
2 49301  87.9187 268.3071 0001617  87.1993 272.9325 13.20772909234580
ONEWEB-0376             
1 49302U 21090Z   26198.81825832 -.00000021  00000+0 -84114-4 0  9999
2 49302  87.9193 298.8687 0002114 105.8952 254.2414 13.19726791230499
ONEWEB-0377             
1 49303U 21090AA  26198.46515294  .00000610  00000+0  14695-2 0  9996
2 49303  87.9234 268.4047 0002611  98.7467 261.3962 13.20768478234516
ONEWEB-0378             
1 49304U 21090AB  26198.63689480 -.00000019  00000+0 -77933-4 0  9996
2 49304  87.9180 268.3719 0001915  97.5972 262.5379 13.20771765233805
ONEWEB-0379             
1 49305U 21090AC  26198.94167966 -.00000113  00000+0 -33905-3 0  9996
2 49305  87.8967 283.5811 0001911  99.3040 260.8306 13.14501792231603
ONEWEB-0380             
1 49306U 21090AD  26198.81510995 -.00000063  00000+0 -19092-3 0  9992
2 49306  87.9185 298.8724 0002034  96.4656 263.6709 13.19726880230460
ONEWEB-0381             
1 49307U 21090AE  26198.61316566  .00000042  00000+0  71230-4 0  9997
2 49307  87.9183 268.3781 0001829  94.6751 265.4592 13.20769480233841
ONEWEB-0382             
1 49308U 21090AF  26198.59971859 -.00000027  00000+0 -97151-4 0  9992
2 49308  87.9182 268.3745 0001773  97.7228 262.4106 13.20771688233832
ONEWEB-0383             
1 49309U 21090AG  26198.78310041  .00000057  00000+0  12046-3 0  9994
2 49309  87.8972 283.6048 0001879 102.2221 257.9120 13.14502447231614
ONEWEB-0384             
1 49310U 21090AH  26198.66314801 -.00000044  00000+0 -13898-3 0  9995
2 49310  87.9186 268.4056 0001612 100.9616 259.1698 13.20814210233855
ONEWEB-0385             
1 49311U 21090AJ  26198.66873226 -.00000069  00000+0 -20155-3 0  9998
2 49311  87.9185 268.3661 0001914  96.9484 263.1867 13.20769471233826
ONEWEB-0386             
1 49312U 21090AK  26198.60979738 -.00000025  00000+0 -92480-4 0  9991
2 49312  87.9186 268.3700 0001832  99.1869 260.9471 13.20772997233837
ONEWEB-0387             
1 49313U 21090AL  26198.59465720  .00000028  00000+0  37623-4 0  9990
2 49313  87.9173 268.3906 0001941  86.9065 273.2291 13.20769933233838
ONEWEB-0388             
1 49314U 21090AM  26198.81036829  .00000007  00000+0 -15021-4 0  9996
2 49314  87.9186 298.8717 0001841  98.2860 261.8482 13.19727001230457
ONEWEB-0389             
1 50469U 21132A   26198.87691639 -.00000040  00000+0 -13641-3 0  9991
2 50469  87.9146 359.7627 0001674  83.8076 276.3246 13.17649859222122
ONEWEB-0390             
1 50470U 21132B   26198.87860491 -.00000162  00000+0 -45060-3 0  9992
2 50470  87.9147 359.7635 0002071  90.7172 269.4197 13.17648888222129
ONEWEB-0391             
1 50471U 21132C   26198.88029104  .00000002  00000+0 -26788-4 0  9991
2 50471  87.9148 359.7729 0001940  67.9350 292.1987 13.17649873222128
ONEWEB-0392             
1 50472U 21132D   26198.91066861 -.00000001  00000+0 -35319-4 0  9997
2 50472  87.9159 359.7374 0001702  83.4264 276.7062 13.17651145222161
ONEWEB-0393             
1 50473U 21132E   26198.88621583  .00000026  00000+0  35072-4 0  9993
2 50473  87.9145 359.7570 0001774  88.8641 271.2693 13.17647434222157
ONEWEB-0394             
1 50474U 21132F   26198.82809564  .00000009  00000+0 -94824-5 0  9998
2 50474  87.9199 329.3495 0001742  97.5828 262.5502 13.18684768225635
